STARLINK-30834          
1 58151U 23166B   26068.68595207  .00020032  00000+0  68654-3 0  9990
2 58151  53.1599 219.7703 0000703 115.4663 244.6410 15.30204498133171
TEVEL2-4                
1 63213U 25052D   26068.69417973  .00020990  00000+0  70363-3 0  9998
2 63213  97.4009 325.1237 0004733  95.3468 264.8313 15.30925813 54879
